#dP2024  5 21  0  0  0.00000000      97 __u+U IGS20 FIT  IAC
## 2315 172800.00000000   900.00000000 60451 0.0000000000000
+  118   C06C07C08C09C10C11C12C13C14C16C19C20C21C22C23C24C25
+        C26C27C28C29C30C32C33C34C35C36C37C38C39C40C41C42C43
+        C44C45C46E02E03E04E05E07E08E09E10E11E12E13E14E15E18
+        E19E21E24E25E26E27E30E31E33E34E36G02G03G04G05G06G07
+        G08G09G10G11G12G13G14G15G16G17G18G19G20G21G22G23G24
+        G25G26G27G28G29G30G31G32J02J03J04R01R02R03R04R05R07
+        R08R09R11R12R13R14R15R16R17R18R19R20R21R22R24R25  0
++         7  7  9  7  7  7  6  9  7  7  5  5  5  5  6  5  6
++         5  5  6  5  5  6  6  6  5  6  6  6  6  6  6  6  6
++         5  6  6  4  4  4  4  4  4  4  4  4  4  4  4  4  5
++         4  4  4  4  4  4  4  4  4  4  4  3  3  3  3  3  3
++         3  3  3  3  3  3  3  3  4  3  3  3  3  3  3  3  3
++         3  3  3  3  3  3  3  3 11 11 11  7  6  6  6  7  7
++         7  6  6  6  7  6  6  6  6  6  8  8  7  7  6  8  0
%c M  cc GPS ccc cccc cccc cccc cccc ccccc ccccc ccccc ccccc
%c cc cc ccc ccc cccc cccc cccc cccc ccccc ccccc ccccc ccccc
%f  1.2500000  1.025000000  0.00000000000  0.000000000000000
%f  0.0000000  0.000000000  0.00000000000  0.000000000000000
%i    0    0    0    0      0      0      0      0         0
%i    0    0    0    0      0      0      0      0         0
/* INFORMATION & ANALYSIS CENTER (IAC)            FINAL DATA
/* S/V CLOCKS ARE ALIGNED TO GNSS TIME                      
/* G:C1WC2W R:C1PC2P E:C1XC5X C:C2IC6I J:C1CC2S             
/* PCV:IGS20_2290 OL/AL:FES2004  NONE     YN ORB:CoN CLK:CoN
*  2024 05 21 10 15  0.00000000
PC06 -18110.932006  34127.574237 -17121.263127    438.581863
PC07  -3840.789522  36773.481760 -19989.359037   -710.185481
PC08  -7529.370182  18894.035576  36917.515103   -135.099159
PC09 -12843.733317  32838.807478 -23097.314198    224.286247
PC10   3621.814055  39377.131587 -13480.007112      7.795406
PC11 -18689.027817  11050.528872 -17464.802722    573.382348
PC12 -12568.150779  -9359.035641 -23060.033570   -248.336776
PC13    162.737860  22083.134231  36095.256072    436.254452
PC14 -17681.984269    322.359298  21616.588696    916.117239
PC16 -21422.139305  33693.395457 -13782.883122   -535.647359
PC19  12005.418608  -9976.542873 -23108.090194   -912.907947
PC20  20032.938747   7660.914269 -17819.718002   -487.638022
PC21 -16622.085805 -22412.454088   1129.287174   -968.545240
PC22  -3382.781939 -23004.500662 -15459.161112      2.333766
PC23  -6516.891263  16315.233936 -21673.695063   -780.519557
PC24 -27058.705907  -2194.570097   6407.436601    919.180060
PC25 -23378.014992  10604.240925 -10930.134685    405.301478
PC26 -15033.748991 -12637.487157  19797.515614   -294.366423
PC27   7241.126006  17829.614869  20187.940583    315.878658
PC28  -5559.408374  25946.393980   8638.192592    242.270049
PC29  16689.770139 -19479.602097  10978.158293    284.300910
PC30  16995.431571   -114.385960  22116.591894    -82.489605
PC32  16716.738565  22305.694950   -993.468501   -628.068394
PC33 -12082.602924   9930.632760  23114.532575   -963.826006
PC34 -17504.583415   1935.896437 -21668.419572    438.384984
PC35   4760.161456 -26185.429152  -8349.522368    357.831157
PC36  23648.533348 -10060.704969  10911.374437     87.794835
PC37  14616.885185  13035.578709 -19874.491197   -959.614503
PC38 -15323.681237  18977.866729  34421.028982    156.431862
PC39 -22520.139505  34511.558528  -9409.570457     -8.422928
PC40  -7752.014638  33926.091919 -23613.063814    -71.206740
PC41   2635.802372  22634.045096  16146.836193   -953.303323
PC42 -20398.525979  -9269.362111  16703.678867   -443.402734
PC43 -17062.952158  18714.000727 -11759.297439     72.455313
PC44  -7983.145960 -17691.038701 -20060.094768    479.734005
PC45   6778.279067 -16166.460056  21718.623145    -87.536693
PC46  27266.408382   1772.066964  -5768.333809   -150.025098
PE02  21592.256987  18547.171401  -8149.304195    129.119462
PE03  11606.194525  22061.831564 -15944.616869   -115.147371
PE04 -16968.285544  -1161.588230  24238.710158   -402.164397
PE05   -456.707867  29553.124583   1532.736961   4749.687596
PE07  12479.861635 -19510.159963 -18431.480080   -121.336052
PE08  16800.761732   2138.738148 -24269.381382   -274.159484
PE09 -12433.199509  19381.390558  18595.590213   -450.713573
PE10 -26504.957892  12131.270859  -5158.518142   -626.483425
PE11 -23042.598785  17816.620620   5306.795323   2819.987447
PE12 -25760.426231   5139.679519 -13674.849691  -1047.785661
PE13  23322.639713 -17585.946396  -4759.518201    -21.715103
PE14   5536.967438 -29501.494775   6545.114790     43.525920
PE15  25547.565500  -4747.991471  14164.842181   -104.153907
PE18 -11045.314860  19622.571500 -12651.805182    135.398408
PE19 -10382.286250 -23642.548266  14488.741380    -24.796541
PE21  -4421.012346 -19616.949991  21720.213562   -595.667365
PE24 -16333.393956   9096.387180 -22960.630342   -774.450128
PE25   3977.259309  19510.804359 -21898.776909      4.769954
PE26   6849.751991 -19922.972679 -20792.975072    460.655964
PE27  16057.441391  -9286.564490  23068.577508   -354.877485
PE30  26822.674421   6551.114016  10668.671654   -322.472487
PE31 -26808.752349  -6390.508881 -10794.972051    -24.104667
PE33 -12281.363508 -11025.516317 -24575.129463     11.926389
PE34  12783.547546  10643.668569  24474.126187   -112.467966
PE36  -7538.699731  19926.717789  20550.892271   -230.108177
PG02  10676.057199 -19906.743311 -13257.673724   -432.327726
PG03  -2311.728719 -16650.830258 -20750.448812    374.345636
PG04   1536.391158 -26273.219900  -2980.709652    365.855145
PG05 -13537.837565   9402.175704  20668.213296   -173.480907
PG06 -21887.570573   2264.793859 -14894.046138    261.840602
PG07  -8789.465928 -13000.575173  21945.478349   -133.490583
PG08   7135.032632 -21893.440864  12743.631147    189.662973
PG09  -8118.390562 -23635.461319   8836.420854    204.439029
PG10  24394.334295  10646.404899  -2329.006843    -26.970982
PG11 -23699.225090  11558.967364  -2928.524609   -667.368223
PG12   -937.528455  16511.792057 -21076.426991   -507.235734
PG13 -13183.935966  14816.358177  17343.222923    652.132396
PG14 -23111.985750 -13282.481999   1049.463223    406.047625
PG15  -4336.127511  22859.431959  12131.992550    161.387583
PG16  17371.288124  -5016.595886  19271.706712   -285.933449
PG17 -12687.679252 -13460.958671 -18580.991910    704.339951
PG18   8865.836442  12040.109994  21967.230717   -613.830607
PG19 -14872.327552  -3899.821231 -21867.212212    485.107795
PG20 -21767.954355   4235.439023  14570.731150    375.799823
PG21  14590.728703 -19458.642214  -8900.737501    120.338536
PG22 -23674.512835  -9252.785779  -6743.915228    -16.601300
PG23  19332.881923  15920.901245   9162.017565    230.792097
PG24 -11254.038558  20671.692328 -12314.267264   -471.530727
PG25   9674.556717  18282.674464 -17143.168439    496.090074
PG26  24838.896896   2626.376660   9398.079579    149.619843
PG27  12928.911458 -11774.242402  19572.130397    -24.981110
PG28  20782.735084   -449.512920 -16542.046025   -253.379684
PG29   4039.820973  25310.019323   6676.889609   -597.593829
PG30 -18254.109474  -4786.295108  18936.797856   -387.018697
PG31  24204.711130  -8517.313081  -7823.724093   -227.749439
PG32  14362.971881  10521.094123 -19559.096531   -617.990863
PJ02 -24331.635966  17446.811143 -25011.220723     -0.181938
PJ03 -28350.432080  31337.215284   4892.547900      0.276255
PJ04 -25973.872177  26339.591845  26071.821719     50.321206
PR01   8745.170525  23352.029286   5336.085055     86.019956
PR02  13980.721281  17842.157221 -11712.174515    -23.012600
PR03  12265.629001   1671.268384 -22260.879992    100.568198
PR04   3717.450156 -14780.664357 -20418.101692    237.400214
PR05  -6603.388488 -23429.843990  -7576.766799    131.817855
PR07 -11962.010225   -706.017295  22556.479586     82.853779
PR08  -3570.574817  15074.837685  20337.918061     -3.969333
PR09 -21373.344677  -7222.154124  12007.049788    187.779981
PR11 -16057.882876   7460.521026 -18358.020767     24.000790
PR12   4690.738374  11185.814176 -22414.281372     40.384041
PR13  19500.309884   8295.693089 -14209.575263    -47.567535
PR14  25011.211660   -459.247209   4943.846340     26.494604
PR15  14648.074927  -8040.095592  19290.742881     79.604578
PR16  -4508.077160 -11038.708899  22566.190514     25.777457
PR17  16600.642569 -10196.223667  16489.643292     88.720740
PR18  15599.432972 -20094.991602   1480.870119    143.118981
PR19   8452.357727 -20239.226872 -13032.125131   -277.419549
PR20  -7553.195447  -7204.832033 -23271.696283   -113.181438
PR21 -16577.705065   9893.657074 -16663.917535   -102.611103
PR22 -15730.705175  20087.547660   -246.603218    110.416346
PR24   8610.803405   6677.700000  23072.897701    -56.680308
PR25 -17201.640969   9576.716057 -16206.653818    -37.368695
EOF
